NORAD_CAT_ID,OBJECT_NAME,OBJECT_TYPE,EPOCH,MEAN_MOTION,ECCENTRICITY,INCLINATION,RA_OF_ASC_NODE,ARG_OF_PERICENTER,MEAN_ANOMALY,BSTAR,MEAN_MOTION_DOT,MEAN_MOTION_DDOT,TLE_LINE0,TLE_LINE1,TLE_LINE2,SEMIMAJOR_AXIS,PERIOD,APOGEE,PERIGEE,DECAYED
53610.0,STARLINK-4610,PAYLOAD,2024-06-21 04:38:47,15.08826531,0.000123,53.2162,166.6963,86.8248,273.2884,-4.3834e-05,-9.85e-06,0.0,0 STARLINK-4610,1 53610U 22104Y   24173.19360194 -.00000985  00000-0 -43834-4 0  9994,2 53610  53.2162 166.6963 0001230  86.8248 273.2884 15.08826531100481,6917.922,95.438,540.637,538.936,0.0
53610.0,STARLINK-4610,PAYLOAD,2024-06-21 09:24:56,15.0882883,0.000138,53.2167,165.8032,92.8817,267.2333,-4.3826e-05,-9.85e-06,0.0,0 STARLINK-4610,1 53610U 22104Y   24173.39232153 -.00000985  00000-0 -43826-4 0  9990,2 53610  53.2167 165.8032 0001380  92.8817 267.2333 15.08828830101082,6917.915,95.438,540.734,538.825,0.0
53610.0,STARLINK-4610,PAYLOAD,2024-06-22 04:29:32,15.08881672,0.0001456,53.2168,162.2347,84.701,275.4148,-0.00073929,-0.00012048,0.0,0 STARLINK-4610,1 53610U 22104Y   24174.18718570 -.00012048  00000-0 -73929-3 0  9999,2 53610  53.2168 162.2347 0001456  84.7010 275.4148 15.08881672100630,6917.753,95.435,540.625,538.611,0.0
53610.0,STARLINK-4610,PAYLOAD,2024-06-22 09:15:43,15.08823537,0.0001424,53.2168,161.3429,93.8812,266.2343,3.6133e-05,2.87e-06,0.0,0 STARLINK-4610,1 53610U 22104Y   24174.38592300  .00000287  00000-0  36133-4 0  9999,2 53610  53.2168 161.3429 0001424  93.8812 266.2343 15.08823537100661,6917.931,95.439,540.781,538.811,0.0
53610.0,STARLINK-4610,PAYLOAD,2024-06-23 04:20:21,15.08831355,0.0001361,53.2167,157.7755,96.0499,264.0648,0.00010214,1.338e-05,0.0,0 STARLINK-4610,1 53610U 22104Y   24175.18080217  .00001338  00000-0  10214-3 0  9996,2 53610  53.2167 157.7755 0001361  96.0499 264.0648 15.08831355100781,6917.907,95.438,540.713,538.83,0.0
53610.0,STARLINK-4610,PAYLOAD,2024-06-23 09:06:30,15.08833246,0.0001371,53.2167,156.8833,98.2234,261.8914,0.0001127,1.506e-05,0.0,0 STARLINK-4610,1 53610U 22104Y   24175.37952180  .00001506  00000-0  11270-3 0  9994,2 53610  53.2167 156.8833 0001371  98.2234 261.8914 15.08833246101389,6917.901,95.438,540.714,538.818,0.0
53610.0,STARLINK-4610,PAYLOAD,2024-06-24 08:57:17,15.08837967,0.0001371,53.2169,152.4226,97.8527,262.2621,9.776e-05,1.268e-05,0.0,0 STARLINK-4610,1 53610U 22104Y   24176.37312329  .00001268  00000-0  97760-4 0  9994,2 53610  53.2169 152.4226 0001371  97.8527 262.2621 15.08837967100966,6917.887,95.438,540.7,538.803,0.0
53610.0,STARLINK-4610,PAYLOAD,2024-06-25 05:37:19,15.08837708,0.0001395,53.2167,148.5544,89.9201,270.1951,3.2581e-05,2.31e-06,0.0,0 STARLINK-4610,1 53610U 22104Y   24177.23424796  .00000231  00000-0  32581-4 0  9991,2 53610  53.2167 148.5544 0001395  89.9201 270.1951 15.08837708101665,6917.887,95.438,540.717,538.787,0.0
53610.0,STARLINK-4610,PAYLOAD,2024-06-26 05:28:05,15.08843669,0.0001422,53.2167,144.0937,99.4558,260.6595,8.2012e-05,1.018e-05,0.0,0 STARLINK-4610,1 53610U 22104Y   24178.22784248  .00001018  00000-0  82012-4 0  9990,2 53610  53.2167 144.0937 0001422  99.4558 260.6595 15.08843669101249,6917.869,95.437,540.718,538.75,0.0
53610.0,STARLINK-4610,PAYLOAD,2024-06-27 03:43:30,15.0883888,0.0001462,53.2167,139.9343,92.3055,267.8104,3.1005e-05,2.06e-06,0.0,0 STARLINK-4610,1 53610U 22104Y   24179.15520915  .00000206  00000-0  31005-4 0  9996,2 53610  53.2167 139.9343 0001462  92.3055 267.8104 15.08838880101380,6917.884,95.438,540.76,538.737,0.0
53610.0,STARLINK-4610,PAYLOAD,2024-06-27 14:51:11,15.08841126,0.0001439,53.2167,137.8514,94.9699,265.1457,4.3818e-05,4.09e-06,0.0,0 STARLINK-4610,1 53610U 22104Y   24179.61888709  .00000409  00000-0  43818-4 0  9995,2 53610  53.2167 137.8514 0001439  94.9699 265.1457 15.08841126102024,6917.877,95.437,540.737,538.746,0.0
53610.0,STARLINK-4610,PAYLOAD,2024-06-28 03:34:16,15.08845506,0.0001428,53.2172,135.471,98.956,261.1594,2.2365e-05,6.8e-07,0.0,0 STARLINK-4610,1 53610U 22104Y   24180.14880426  .00000068  00000-0  22365-4 0  9998,2 53610  53.2172 135.4710 0001428  98.9560 261.1594 15.08845506102104,6917.864,95.437,540.716,538.741,0.0
53610.0,STARLINK-4610,PAYLOAD,2024-06-29 03:25:02,15.08855525,0.0001403,53.2169,131.0089,106.5212,253.5934,0.00010184,1.334e-05,0.0,0 STARLINK-4610,1 53610U 22104Y   24181.14239297  .00001334  00000-0  10184-3 0  9995,2 53610  53.2169 131.0089 0001403 106.5212 253.5934 15.08855525101681,6917.833,95.437,540.669,538.727,0.0
53610.0,STARLINK-4610,PAYLOAD,2024-06-29 06:35:48,15.08856962,0.0001389,53.2171,130.4145,104.8063,255.3083,0.0001188,1.604e-05,0.0,0 STARLINK-4610,1 53610U 22104Y   24181.27487135  .00001604  00000-0  11880-3 0  9999,2 53610  53.2171 130.4145 0001389 104.8063 255.3083 15.08856962102275,6917.829,95.436,540.654,538.733,0.0
53610.0,STARLINK-4610,PAYLOAD,2024-06-29 20:54:19,15.08823853,0.00013,53.2165,127.7411,96.4375,263.6765,-8.4106e-05,-1.626e-05,0.0,0 STARLINK-4610,1 53610U 22104Y   24181.87106140 -.00001626  00000-0 -84106-4 0  9997,2 53610  53.2165 127.7411 0001300  96.4375 263.6765 15.08823853102360,6917.93,95.439,540.694,538.895,0.0
53610.0,STARLINK-4610,PAYLOAD,2024-06-30 03:15:52,15.08822287,0.000118,53.2163,126.5526,86.7215,273.3912,-8.3201e-05,-1.611e-05,0.0,0 STARLINK-4610,1 53610U 22104Y   24182.13602547 -.00001611  00000-0 -83201-4 0  9998,2 53610  53.2163 126.5526 0001180  86.7215 273.3912 15.08822287101836,6917.935,95.439,540.616,538.983,0.0
53610.0,STARLINK-4610,PAYLOAD,2024-06-30 12:48:10,15.08833234,0.0001278,53.2171,124.7675,90.7935,269.3203,-2.3146e-05,-6.56e-06,0.0,0 STARLINK-4610,1 53610U 22104Y   24182.53345994 -.00000656  00000-0 -23146-4 0  9992,2 53610  53.2171 124.7675 0001278  90.7935 269.3203 15.08833234102464,6917.901,95.438,540.65,538.882,0.0
53610.0,STARLINK-4610,PAYLOAD,2024-07-01 03:06:39,15.08822264,6.72e-05,53.2162,122.0907,53.0427,307.0627,-0.00022182,-3.814e-05,0.0,0 STARLINK-4610,1 53610U 22104Y   24183.12962751 -.00003814  00000-0 -22182-3 0  9991,2 53610  53.2162 122.0907 0000672  53.0427 307.0627 15.08822264101985,6917.935,95.439,540.264,539.335,0.0
53610.0,STARLINK-4610,PAYLOAD,2024-07-01 12:38:57,15.08842341,0.0001567,53.2164,120.3065,91.5503,268.5668,-4.7417e-05,-1.043e-05,0.0,0 STARLINK-4610,1 53610U 22104Y   24183.52705109 -.00001043  00000-0 -47417-4 0  9998,2 53610  53.2164 120.3065 0001567  91.5503 268.5668 15.08842341102041,6917.873,95.437,540.822,538.654,0.0
53610.0,STARLINK-4610,PAYLOAD,2024-07-02 01:22:02,15.08829517,0.0001005,53.2153,117.9282,120.2309,239.8783,0.00021372,3.114e-05,0.0,0 STARLINK-4610,1 53610U 22104Y   24184.05697676  .00003114  00000-0  21372-3 0  9996,2 53610  53.2153 117.9282 0001005 120.2309 239.8783 15.08829517102121,6917.912,95.438,540.473,539.082,0.0
53610.0,STARLINK-4610,PAYLOAD,2024-07-02 12:29:44,15.08835423,7.25e-05,53.2143,115.8464,76.2112,283.8961,0.00025337,3.747e-05,0.0,0 STARLINK-4610,1 53610U 22104Y   24184.52065476  .00003747  00000-0  25337-3 0  9992,2 53610  53.2143 115.8464 0000725  76.2112 283.8961 15.08835423102769,6917.894,95.438,540.261,539.258,0.0
53610.0,STARLINK-4610,PAYLOAD,2024-07-02 18:51:17,15.08829493,7.6e-06,53.2132,114.6579,193.0347,167.0643,0.00017533,2.503e-05,0.0,0 STARLINK-4610,1 53610U 22104Y   24184.78561753  .00002503  00000-0  17533-3 0  9997,2 53610  53.2132 114.6579 0000076 193.0347 167.0643 15.08829493102803,6917.913,95.438,539.83,539.725,0.0
53610.0,STARLINK-4610,PAYLOAD,2024-07-03 04:23:35,15.08835327,6.87e-05,53.2145,112.8741,318.2076,41.8864,0.00027563,4.101e-05,0.0,0 STARLINK-4610,1 53610U 22104Y   24185.18305311  .00004101  00000-0  27563-3 0  9998,2 53610  53.2145 112.8741 0000687 318.2076  41.8864 15.08835327102296,6917.895,95.438,540.235,539.284,0.0
53610.0,STARLINK-4610,PAYLOAD,2024-07-03 12:20:32,15.0883935,0.0001367,53.2146,111.3872,85.8556,274.2593,-1.1426e-05,-4.7e-06,0.0,0 STARLINK-4610,1 53610U 22104Y   24185.51425983 -.00000470  00000-0 -11426-4 0  9992,2 53610  53.2146 111.3872 0001367  85.8556 274.2593 15.08839350102912,6917.882,95.438,540.693,538.802,0.0
53610.0,STARLINK-4610,PAYLOAD,2024-07-04 12:11:18,15.08840508,0.0001111,53.2159,106.9254,90.5005,269.6115,3.0242e-05,1.94e-06,0.0,0 STARLINK-4610,1 53610U 22104Y   24186.50785800  .00000194  00000-0  30242-4 0  9997,2 53610  53.2159 106.9254 0001111  90.5005 269.6115 15.08840508102497,6917.879,95.438,540.512,538.975,0.0
53610.0,STARLINK-4610,PAYLOAD,2024-07-04 23:19:00,15.08840538,0.0001351,53.2158,104.8455,89.9663,270.1484,0.00011051,1.471e-05,0.0,0 STARLINK-4610,1 53610U 22104Y   24186.97153738  .00001471  00000-0  11051-3 0  9992,2 53610  53.2158 104.8455 0001351  89.9663 270.1484 15.08840538103135,6917.879,95.438,540.678,538.809,0.0
53610.0,STARLINK-4610,PAYLOAD,2024-07-05 04:05:08,15.08862506,0.0001536,53.2177,103.9475,129.0002,231.1127,0.00015991,2.259e-05,0.0,0 STARLINK-4610,1 53610U 22104Y   24187.17023909  .00002259  00000-0  15991-3 0  9993,2 53610  53.2177 103.9475 0001536 129.0002 231.1127 15.08862506102595,6917.812,95.436,540.739,538.614,0.0
53610.0,STARLINK-4610,PAYLOAD,2024-07-05 12:02:05,15.08843411,0.0001349,53.2153,102.4669,91.9272,268.1874,8.9917e-05,1.144e-05,0.0,0 STARLINK-4610,1 53610U 22104Y   24187.50145360  .00001144  00000-0  89917-4 0  9998,2 53610  53.2153 102.4669 0001349  91.9272 268.1874 15.08843411102645,6917.87,95.437,540.668,538.802,0.0
53610.0,STARLINK-4610,PAYLOAD,2024-07-05 21:34:24,15.08838604,0.0001501,53.2164,100.6815,103.1058,257.0102,6.995e-05,8.25e-06,0.0,0 STARLINK-4610,1 53610U 22104Y   24187.89889787  .00000825  00000-0  69950-4 0  9998,2 53610  53.2164 100.6815 0001501 103.1058 257.0102 15.08838604103277,6917.885,95.438,540.788,538.711,0.0
53610.0,STARLINK-4610,PAYLOAD,2024-07-06 03:55:57,15.08842576,0.0001445,53.2173,99.4911,106.1619,253.9532,-1.5272e-05,-5.31e-06,0.0,0 STARLINK-4610,1 53610U 22104Y   24188.16385669 -.00000531  00000-0 -15272-4 0  9993,2 53610  53.2173  99.4911 0001445 106.1619 253.9532 15.08842576102748,6917.873,95.437,540.737,538.738,0.0
